[{"OBJECT_NAME":"STARLINK-4068","OBJECT_ID":"2022-053AB","EPOCH":"2026-03-09T11:29:20.672736","MEAN_MOTION":15.08838363,"ECCENTRICITY":0.00013845,"INCLINATION":53.2176,"RA_OF_ASC_NODE":145.0683,"ARG_OF_PERICENTER":86.5681,"MEAN_ANOMALY":273.5469,"EPHEMERIS_TYPE":0,"CLASSIFICATION_TYPE":"U","NORAD_CAT_ID":52681,"ELEMENT_SET_NO":999,"REV_AT_EPOCH":21110,"BSTAR":-3.4283707e-5,"MEAN_MOTION_DOT":-8.33e-6,"MEAN_MOTION_DDOT":0},{"OBJECT_NAME":"OBJECT M","OBJECT_ID":"2017-042M","EPOCH":"2026-03-09T22:38:39.337440","MEAN_MOTION":15.07991931,"ECCENTRICITY":0.0005117,"INCLINATION":97.4139,"RA_OF_ASC_NODE":234.2602,"ARG_OF_PERICENTER":83.1417,"MEAN_ANOMALY":277.0393,"EPHEMERIS_TYPE":0,"CLASSIFICATION_TYPE":"U","NORAD_CAT_ID":42836,"ELEMENT_SET_NO":999,"REV_AT_EPOCH":47205,"BSTAR":0.00047182615,"MEAN_MOTION_DOT":7.201e-5,"MEAN_MOTION_DDOT":0}]
